[
    {
        "CCSDS_OMM_VERS": "3.0",
        "COMMENT": "GENERATED VIA SPACE-TRACK.ORG API",
        "CREATION_DATE": "2025-02-28T19:05:01",
        "ORIGINATOR": "18 SPCS",
        "OBJECT_NAME": "NAVSTAR 78 (USA 293)",
        "OBJECT_ID": "2019-056A",
        "CENTER_NAME": "EARTH",
        "REF_FRAME": "TEME",
        "TIME_SYSTEM": "UTC",
        "MEAN_ELEMENT_THEORY": "SGP4",
        "EPOCH": "2025-02-28T05:43:28.835616",
        "MEAN_MOTION": "2.00560179",
        "ECCENTRICITY": "0.00489120",
        "INCLINATION": "55.8092",
        "RA_OF_ASC_NODE": "349.9509",
        "ARG_OF_PERICENTER": "194.2354",
        "MEAN_ANOMALY": "337.4464",
        "EPHEMERIS_TYPE": "0",
        "CLASSIFICATION_TYPE": "U",
        "NORAD_CAT_ID": "44506",
        "ELEMENT_SET_NO": "999",
        "REV_AT_EPOCH": "4056",
        "BSTAR": "0.00000000000000",
        "MEAN_MOTION_DOT": "-0.00000077",
        "MEAN_MOTION_DDOT": "0.0000000000000",
        "SEMIMAJOR_AXIS": "26560.650",
        "PERIOD": "717.989",
        "APOAPSIS": "20312.429",
        "PERIAPSIS": "20052.602",
        "OBJECT_TYPE": "PAYLOAD",
        "RCS_SIZE": "LARGE",
        "COUNTRY_CODE": "US",
        "LAUNCH_DATE": "2019-08-22",
        "SITE": "AFETR",
        "DECAY_DATE": null,
        "FILE": "4655208",
        "GP_ID": "281921813",
        "TLE_LINE0": "0 NAVSTAR 78 (USA 293)",
        "TLE_LINE1": "1 44506U 19056A   25059.23852819 -.00000077  00000-0  00000-0 0  9994",
        "TLE_LINE2": "2 44506  55.8092 349.9509 0048912 194.2354 337.4464  2.00560179 40567"
    }
]